ONEWEB-0309             
1 49095U 21075W   23327.56966307  .00000153  00000+0  36100-3 0  9992
2 49095  87.9221 192.0447 0001676 103.5943 256.5376 13.17650546110239
ONEWEB-0310             
1 49096U 21075X   23327.58599566 -.00002804  00000+0 -78309-2 0  9997
2 49096  87.9021 176.9386 0001345  92.1019 268.0263 13.12459696112335
ONEWEB-0311             
1 49097U 21075Y   23327.57600141  .00000055  00000+0  10814-3 0  9991
2 49097  87.9222 192.0434 0002103  79.8418 280.2950 13.17648216110284
ONEWEB-0312             
1 49098U 21075Z   23327.58865806  .00000021  00000+0  19912-4 0  9996
2 49098  87.9236 192.0678 0001962  92.1714 267.9642 13.17648819110266
ONEWEB-0313             
1 49099U 21075AA  23327.56755729  .00000070  00000+0  14809-3 0  9990
2 49099  87.9221 192.0800 0001863  89.0698 271.0647 13.17647411110251
ONEWEB-0314             
1 49100U 21075AB  23327.56124531  .00000035  00000+0  57997-4 0  9991
2 49100  87.9225 192.0444 0002033  91.4076 268.7288 13.17648698110228
ONEWEB-0315             
1 49101U 21075AC  23327.56050281  .00008398  00000+0  23307-1 0  9997
2 49101  87.9007 176.9516 0001777  68.8660 291.2658 13.12383557112318
ONEWEB-0316             
1 49102U 21075AD  23327.53944173  .00000049  00000+0  92336-4 0  9993
2 49102  87.9140 161.7999 0001840  81.3754 278.7586 13.18682707113764
